{
  "type": "FeatureCollection",
  "features": [
    {
      "type": "Feature",
      "geometry": {
        "type": "Polygon",
        "coordinates": [
          [
            [
              -58.17,
              6.7860000000000005
            ],
            [
              -58.14,
              6.7860000000000005
            ],
            [
              -58.14,
              6.816
            ],
            [
              -58.17,
              6.816
            ],
            [
              -58.17,
              6.7860000000000005
            ]
          ]
        ]
      },
      "properties": {}
    }
  ]
}
