{
  "type": "FeatureCollection",
  "features": [
    {
      "type": "Feature",
      "geometry": {
        "type": "Polygon",
        "coordinates": [
          [
            [
              34.446999999999996,
              31.482
            ],
            [
              34.487,
              31.482
            ],
            [
              34.487,
              31.522
            ],
            [
              34.446999999999996,
              31.522
            ],
            [
              34.446999999999996,
              31.482
            ]
          ]
        ]
      },
      "properties": {}
    }
  ],
  "properties": {
    "site_id": "gaza",
    "evidence_status": "smoke_test_only",
    "data_mode": "synthetic-fixture"
  }
}
