{
  "type": "FeatureCollection",
  "features": [
    {
      "type": "Feature",
      "geometry": {
        "type": "Point",
        "coordinates": [
          34.461999999999996,
          31.505
        ]
      },
      "properties": {
        "type": "school_or_learning",
        "synthetic": true
      }
    },
    {
      "type": "Feature",
      "geometry": {
        "type": "Point",
        "coordinates": [
          34.471,
          31.502
        ]
      },
      "properties": {
        "type": "library_community",
        "synthetic": true
      }
    },
    {
      "type": "Feature",
      "geometry": {
        "type": "Point",
        "coordinates": [
          34.467,
          31.497999999999998
        ]
      },
      "properties": {
        "type": "small_business",
        "synthetic": true
      }
    }
  ],
  "properties": {
    "site_id": "gaza",
    "evidence_status": "smoke_test_only",
    "data_mode": "synthetic-fixture"
  }
}
