{
  "type": "FeatureCollection",
  "features": [
    {
      "type": "Feature",
      "geometry": {
        "type": "Polygon",
        "coordinates": [
          [
            [
              13.375,
              52.49
            ],
            [
              13.434999999999999,
              52.49
            ],
            [
              13.434999999999999,
              52.550000000000004
            ],
            [
              13.375,
              52.550000000000004
            ],
            [
              13.375,
              52.49
            ]
          ]
        ]
      },
      "properties": {}
    }
  ],
  "properties": {
    "site_id": "germany",
    "evidence_status": "smoke_test_only",
    "data_mode": "synthetic-fixture"
  }
}
