{
  "type": "FeatureCollection",
  "features": [
    {
      "type": "Feature",
      "geometry": {
        "type": "Polygon",
        "coordinates": [
          [
            [
              13.389999999999999,
              52.505
            ],
            [
              13.42,
              52.505
            ],
            [
              13.42,
              52.535000000000004
            ],
            [
              13.389999999999999,
              52.535000000000004
            ],
            [
              13.389999999999999,
              52.505
            ]
          ]
        ]
      },
      "properties": {}
    }
  ]
}
