{
  "type": "FeatureCollection",
  "features": [
    {
      "type": "Feature",
      "geometry": {
        "type": "Polygon",
        "coordinates": [
          [
            [
              -87.3614,
              41.5784
            ],
            [
              -87.3314,
              41.5784
            ],
            [
              -87.3314,
              41.6084
            ],
            [
              -87.3614,
              41.6084
            ],
            [
              -87.3614,
              41.5784
            ]
          ]
        ]
      },
      "properties": {}
    }
  ]
}
