{
  "type": "FeatureCollection",
  "features": [
    {
      "type": "Feature",
      "geometry": {
        "type": "Polygon",
        "coordinates": [
          [
            [
              144.346,
              -38.165
            ],
            [
              144.37599999999998,
              -38.165
            ],
            [
              144.37599999999998,
              -38.135
            ],
            [
              144.346,
              -38.135
            ],
            [
              144.346,
              -38.165
            ]
          ]
        ]
      },
      "properties": {}
    }
  ]
}
